<?xml version="1.0" encoding="UTF-8"?>
<ndm xmlns:xsi="http://www.w3.org/2001/XMLSchema-instance" xsi:noNamespaceSchemaLocation="https://sanaregistry.org/r/ndmxml_unqualified/ndmxml-2.0.0-master-2.0.xsd">
<omm id="CCSDS_OMM_VERS" version="2.0">
<header><CREATION_DATE/><ORIGINATOR/></header><body><segment><metadata><OBJECT_NAME>ORBCOMM FM33</OBJECT_NAME><OBJECT_ID>1999-065D</OBJECT_ID><CENTER_NAME>EARTH</CENTER_NAME><REF_FRAME>TEME</REF_FRAME><TIME_SYSTEM>UTC</TIME_SYSTEM><MEAN_ELEMENT_THEORY>SGP4</MEAN_ELEMENT_THEORY></metadata><data><meanElements><EPOCH>2024-06-22T18:05:11.046048</EPOCH><MEAN_MOTION>14.37863761</MEAN_MOTION><ECCENTRICITY>.0006515</ECCENTRICITY><INCLINATION>45.0293</INCLINATION><RA_OF_ASC_NODE>265.1285</RA_OF_ASC_NODE><ARG_OF_PERICENTER>49.2408</ARG_OF_PERICENTER><MEAN_ANOMALY>310.9005</MEAN_ANOMALY></meanElements><tleParameters><EPHEMERIS_TYPE>0</EPHEMERIS_TYPE><CLASSIFICATION_TYPE>U</CLASSIFICATION_TYPE><NORAD_CAT_ID>25983</NORAD_CAT_ID><ELEMENT_SET_NO>999</ELEMENT_SET_NO><REV_AT_EPOCH>28429</REV_AT_EPOCH><BSTAR>.39754E-3</BSTAR><MEAN_MOTION_DOT>.1068E-4</MEAN_MOTION_DOT><MEAN_MOTION_DDOT>0</MEAN_MOTION_DDOT></tleParameters></data></segment></body></omm>
<omm id="CCSDS_OMM_VERS" version="2.0">
<header><CREATION_DATE/><ORIGINATOR/></header><body><segment><metadata><OBJECT_NAME>ORBCOMM FM36</OBJECT_NAME><OBJECT_ID>1999-065E</OBJECT_ID><CENTER_NAME>EARTH</CENTER_NAME><REF_FRAME>TEME</REF_FRAME><TIME_SYSTEM>UTC</TIME_SYSTEM><MEAN_ELEMENT_THEORY>SGP4</MEAN_ELEMENT_THEORY></metadata><data><meanElements><EPOCH>2024-06-22T20:33:29.795040</EPOCH><MEAN_MOTION>14.35773853</MEAN_MOTION><ECCENTRICITY>.0003246</ECCENTRICITY><INCLINATION>45.0414</INCLINATION><RA_OF_ASC_NODE>350.8788</RA_OF_ASC_NODE><ARG_OF_PERICENTER>273.9398</ARG_OF_PERICENTER><MEAN_ANOMALY>86.1078</MEAN_ANOMALY></meanElements><tleParameters><EPHEMERIS_TYPE>0</EPHEMERIS_TYPE><CLASSIFICATION_TYPE>U</CLASSIFICATION_TYPE><NORAD_CAT_ID>25984</NORAD_CAT_ID><ELEMENT_SET_NO>999</ELEMENT_SET_NO><REV_AT_EPOCH>28273</REV_AT_EPOCH><BSTAR>.57855E-3</BSTAR><MEAN_MOTION_DOT>.1547E-4</MEAN_MOTION_DOT><MEAN_MOTION_DDOT>0</MEAN_MOTION_DDOT></tleParameters></data></segment></body></omm>
<omm id="CCSDS_OMM_VERS" version="2.0">
<header><CREATION_DATE/><ORIGINATOR/></header><body><segment><metadata><OBJECT_NAME>ORBCOMM FM35</OBJECT_NAME><OBJECT_ID>1999-065F</OBJECT_ID><CENTER_NAME>EARTH</CENTER_NAME><REF_FRAME>TEME</REF_FRAME><TIME_SYSTEM>UTC</TIME_SYSTEM><MEAN_ELEMENT_THEORY>SGP4</MEAN_ELEMENT_THEORY></metadata><data><meanElements><EPOCH>2024-06-22T21:53:24.013536</EPOCH><MEAN_MOTION>14.35301606</MEAN_MOTION><ECCENTRICITY>.0002594</ECCENTRICITY><INCLINATION>45.0416</INCLINATION><RA_OF_ASC_NODE>353.4144</RA_OF_ASC_NODE><ARG_OF_PERICENTER>49.7369</ARG_OF_PERICENTER><MEAN_ANOMALY>310.3705</MEAN_ANOMALY></meanElements><tleParameters><EPHEMERIS_TYPE>0</EPHEMERIS_TYPE><CLASSIFICATION_TYPE>U</CLASSIFICATION_TYPE><NORAD_CAT_ID>25985</NORAD_CAT_ID><ELEMENT_SET_NO>999</ELEMENT_SET_NO><REV_AT_EPOCH>28313</REV_AT_EPOCH><BSTAR>.39881E-3</BSTAR><MEAN_MOTION_DOT>.1011E-4</MEAN_MOTION_DOT><MEAN_MOTION_DDOT>0</MEAN_MOTION_DDOT></tleParameters></data></segment></body></omm>
<omm id="CCSDS_OMM_VERS" version="2.0">
<header><CREATION_DATE/><ORIGINATOR/></header><body><segment><metadata><OBJECT_NAME>ORBCOMM FM34</OBJECT_NAME><OBJECT_ID>1999-065G</OBJECT_ID><CENTER_NAME>EARTH</CENTER_NAME><REF_FRAME>TEME</REF_FRAME><TIME_SYSTEM>UTC</TIME_SYSTEM><MEAN_ELEMENT_THEORY>SGP4</MEAN_ELEMENT_THEORY></metadata><data><meanElements><EPOCH>2024-06-22T21:12:07.920000</EPOCH><MEAN_MOTION>14.35274216</MEAN_MOTION><ECCENTRICITY>.0002857</ECCENTRICITY><INCLINATION>45.0411</INCLINATION><RA_OF_ASC_NODE>354.0929</RA_OF_ASC_NODE><ARG_OF_PERICENTER>336.6791</ARG_OF_PERICENTER><MEAN_ANOMALY>23.3926</MEAN_ANOMALY></meanElements><tleParameters><EPHEMERIS_TYPE>0</EPHEMERIS_TYPE><CLASSIFICATION_TYPE>U</CLASSIFICATION_TYPE><NORAD_CAT_ID>25986</NORAD_CAT_ID><ELEMENT_SET_NO>999</ELEMENT_SET_NO><REV_AT_EPOCH>28324</REV_AT_EPOCH><BSTAR>.41613E-3</BSTAR><MEAN_MOTION_DOT>.1061E-4</MEAN_MOTION_DOT><MEAN_MOTION_DDOT>0</MEAN_MOTION_DDOT></tleParameters></data></segment></body></omm>
<omm id="CCSDS_OMM_VERS" version="2.0">
<header><CREATION_DATE/><ORIGINATOR/></header><body><segment><metadata><OBJECT_NAME>ORBCOMM FM38</OBJECT_NAME><OBJECT_ID>2008-031A</OBJECT_ID><CENTER_NAME>EARTH</CENTER_NAME><REF_FRAME>TEME</REF_FRAME><TIME_SYSTEM>UTC</TIME_SYSTEM><MEAN_ELEMENT_THEORY>SGP4</MEAN_ELEMENT_THEORY></metadata><data><meanElements><EPOCH>2024-06-22T13:42:59.948352</EPOCH><MEAN_MOTION>14.77830349</MEAN_MOTION><ECCENTRICITY>.0006349</ECCENTRICITY><INCLINATION>48.4410</INCLINATION><RA_OF_ASC_NODE>224.7342</RA_OF_ASC_NODE><ARG_OF_PERICENTER>298.3797</ARG_OF_PERICENTER><MEAN_ANOMALY>61.6477</MEAN_ANOMALY></meanElements><tleParameters><EPHEMERIS_TYPE>0</EPHEMERIS_TYPE><CLASSIFICATION_TYPE>U</CLASSIFICATION_TYPE><NORAD_CAT_ID>33060</NORAD_CAT_ID><ELEMENT_SET_NO>999</ELEMENT_SET_NO><REV_AT_EPOCH>86149</REV_AT_EPOCH><BSTAR>.26059E-3</BSTAR><MEAN_MOTION_DOT>.1684E-4</MEAN_MOTION_DOT><MEAN_MOTION_DDOT>0</MEAN_MOTION_DDOT></tleParameters></data></segment></body></omm>
<omm id="CCSDS_OMM_VERS" version="2.0">
<header><CREATION_DATE/><ORIGINATOR/></header><body><segment><metadata><OBJECT_NAME>ORBCOMM FM41</OBJECT_NAME><OBJECT_ID>2008-031B</OBJECT_ID><CENTER_NAME>EARTH</CENTER_NAME><REF_FRAME>TEME</REF_FRAME><TIME_SYSTEM>UTC</TIME_SYSTEM><MEAN_ELEMENT_THEORY>SGP4</MEAN_ELEMENT_THEORY></metadata><data><meanElements><EPOCH>2024-06-22T14:04:20.079264</EPOCH><MEAN_MOTION>14.77556884</MEAN_MOTION><ECCENTRICITY>.0005521</ECCENTRICITY><INCLINATION>48.4445</INCLINATION><RA_OF_ASC_NODE>231.3868</RA_OF_ASC_NODE><ARG_OF_PERICENTER>285.9147</ARG_OF_PERICENTER><MEAN_ANOMALY>227.3218</MEAN_ANOMALY></meanElements><tleParameters><EPHEMERIS_TYPE>0</EPHEMERIS_TYPE><CLASSIFICATION_TYPE>U</CLASSIFICATION_TYPE><NORAD_CAT_ID>33061</NORAD_CAT_ID><ELEMENT_SET_NO>999</ELEMENT_SET_NO><REV_AT_EPOCH>86143</REV_AT_EPOCH><BSTAR>.26253E-3</BSTAR><MEAN_MOTION_DOT>.1686E-4</MEAN_MOTION_DOT><MEAN_MOTION_DDOT>0</MEAN_MOTION_DDOT></tleParameters></data></segment></body></omm>
<omm id="CCSDS_OMM_VERS" version="2.0">
<header><CREATION_DATE/><ORIGINATOR/></header><body><segment><metadata><OBJECT_NAME>ORBCOMM FM29</OBJECT_NAME><OBJECT_ID>2008-031C</OBJECT_ID><CENTER_NAME>EARTH</CENTER_NAME><REF_FRAME>TEME</REF_FRAME><TIME_SYSTEM>UTC</TIME_SYSTEM><MEAN_ELEMENT_THEORY>SGP4</MEAN_ELEMENT_THEORY></metadata><data><meanElements><EPOCH>2024-06-22T17:03:20.223072</EPOCH><MEAN_MOTION>14.77502758</MEAN_MOTION><ECCENTRICITY>.0007383</ECCENTRICITY><INCLINATION>48.4400</INCLINATION><RA_OF_ASC_NODE>238.8341</RA_OF_ASC_NODE><ARG_OF_PERICENTER>284.0140</ARG_OF_PERICENTER><MEAN_ANOMALY>223.2490</MEAN_ANOMALY></meanElements><tleParameters><EPHEMERIS_TYPE>0</EPHEMERIS_TYPE><CLASSIFICATION_TYPE>U</CLASSIFICATION_TYPE><NORAD_CAT_ID>33062</NORAD_CAT_ID><ELEMENT_SET_NO>999</ELEMENT_SET_NO><REV_AT_EPOCH>86092</REV_AT_EPOCH><BSTAR>.28691E-3</BSTAR><MEAN_MOTION_DOT>.186E-4</MEAN_MOTION_DOT><MEAN_MOTION_DDOT>0</MEAN_MOTION_DDOT></tleParameters></data></segment></body></omm>
<omm id="CCSDS_OMM_VERS" version="2.0">
<header><CREATION_DATE/><ORIGINATOR/></header><body><segment><metadata><OBJECT_NAME>ORBCOMM FM39</OBJECT_NAME><OBJECT_ID>2008-031D</OBJECT_ID><CENTER_NAME>EARTH</CENTER_NAME><REF_FRAME>TEME</REF_FRAME><TIME_SYSTEM>UTC</TIME_SYSTEM><MEAN_ELEMENT_THEORY>SGP4</MEAN_ELEMENT_THEORY></metadata><data><meanElements><EPOCH>2024-06-22T16:16:41.428992</EPOCH><MEAN_MOTION>14.76465138</MEAN_MOTION><ECCENTRICITY>.00082</ECCENTRICITY><INCLINATION>48.4417</INCLINATION><RA_OF_ASC_NODE>259.8373</RA_OF_ASC_NODE><ARG_OF_PERICENTER>260.1581</ARG_OF_PERICENTER><MEAN_ANOMALY>99.8407</MEAN_ANOMALY></meanElements><tleParameters><EPHEMERIS_TYPE>0</EPHEMERIS_TYPE><CLASSIFICATION_TYPE>U</CLASSIFICATION_TYPE><NORAD_CAT_ID>33063</NORAD_CAT_ID><ELEMENT_SET_NO>999</ELEMENT_SET_NO><REV_AT_EPOCH>86061</REV_AT_EPOCH><BSTAR>.26563E-3</BSTAR><MEAN_MOTION_DOT>.1662E-4</MEAN_MOTION_DOT><MEAN_MOTION_DDOT>0</MEAN_MOTION_DDOT></tleParameters></data></segment></body></omm>

</ndm>
