ORBCOMM FM33            
1 25983U 99065D   24174.75360007  .00001068  00000+0  39754-3 0  9997
2 25983  45.0293 265.1285 0006515  49.2408 310.9005 14.37863761284294
ORBCOMM FM36            
1 25984U 99065E   24174.85659485  .00001547  00000+0  57855-3 0  9994
2 25984  45.0414 350.8788 0003246 273.9398  86.1078 14.35773853282731
ORBCOMM FM35            
1 25985U 99065F   24174.91208349  .00001011  00000+0  39881-3 0  9996
2 25985  45.0416 353.4144 0002594  49.7369 310.3705 14.35301606283138
ORBCOMM FM34            
1 25986U 99065G   24174.88342500  .00001061  00000+0  41613-3 0  9992
2 25986  45.0411 354.0929 0002857 336.6791  23.3926 14.35274216283245
ORBCOMM FM38            
1 33060U 08031A   24174.57152718  .00001684  00000+0  26059-3 0  9991
2 33060  48.4410 224.7342 0006349 298.3797  61.6477 14.77830349861491
ORBCOMM FM41            
1 33061U 08031B   24174.58634351  .00001686  00000+0  26253-3 0  9999
2 33061  48.4445 231.3868 0005521 285.9147 227.3218 14.77556884861436
ORBCOMM FM29            
1 33062U 08031C   24174.71065073  .00001860  00000+0  28691-3 0  9996
2 33062  48.4400 238.8341 0007383 284.0140 223.2490 14.77502758860928
ORBCOMM FM39            
1 33063U 08031D   24174.67825728  .00001662  00000+0  26563-3 0  9999
2 33063  48.4417 259.8373 0008200 260.1581  99.8407 14.76465138860618
